{
  "type": "FeatureCollection",
  "features": [
    {
      "type": "Feature",
      "properties": {
        "norad_id": 35616,
        "name": "IRIDIUM 33 DEB",
        "group": "iridium-33-debris",
        "lat": 49.874761366734425,
        "lon": 161.9190912616532,
        "alt_km": 613.8976319159201,
        "timestamp": "2025-12-11T15:53:39.928815+00:00",
        "meta_object_name": "IRIDIUM 33 DEB",
        "meta_object_id": "1997-051QN",
        "meta_epoch": "2025-12-09T17:55:38.523360",
        "meta_mean_motion": 14.816872,
        "meta_eccentricity": 0.00097125,
        "meta_inclination": 86.355,
        "meta_ra_of_asc_node": 347.1304,
        "meta_arg_of_pericenter": 173.7748,
        "meta_mean_anomaly": 186.3597,
        "meta_ephemeris_type": 0,
        "meta_classification_type": "U",
        "meta_norad_cat_id": 35616,
        "meta_element_set_no": 999,
        "meta_rev_at_epoch": 87530,
        "meta_bstar": 0.0025734917,
        "meta_mean_motion_dot": 0.00020338,
        "meta_mean_motion_ddot": 0,
        "tle_line1": "1 35616U 97051QN  25343.74697365  .00020338  00000+0  25735-2 0  9996",
        "tle_line2": "2 35616  86.3550 347.1304 0009712 173.7748 186.3597 14.81687200875307"
      },
      "geometry": {
        "type": "Point",
        "coordinates": [
          161.9190912616532,
          49.874761366734425
        ]
      }
    },
    {
      "type": "Feature",
      "properties": {
        "norad_id": 35618,
        "name": "IRIDIUM 33 DEB",
        "group": "iridium-33-debris",
        "lat": 10.015880299023202,
        "lon": -5.3788172217808015,
        "alt_km": 699.0905114930883,
        "timestamp": "2025-12-11T15:53:39.928826+00:00",
        "meta_object_name": "IRIDIUM 33 DEB",
        "meta_object_id": "1997-051QQ",
        "meta_epoch": "2025-12-05T07:42:53.148672",
        "meta_mean_motion": 14.52258119,
        "meta_eccentricity": 0.00302089,
        "meta_inclination": 86.3407,
        "meta_ra_of_asc_node": 356.7447,
        "meta_arg_of_pericenter": 46.3254,
        "meta_mean_anomaly": 314.0448,
        "meta_ephemeris_type": 0,
        "meta_classification_type": "U",
        "meta_norad_cat_id": 35618,
        "meta_element_set_no": 999,
        "meta_rev_at_epoch": 65286,
        "meta_bstar": 0.00091388234,
        "meta_mean_motion_dot": 3.753e-05,
        "meta_mean_motion_ddot": 0,
        "tle_line1": "1 35618U 97051QQ  25339.32144848  .00003753  00000+0  91388-3 0  9990",
        "tle_line2": "2 35618  86.3407 356.7447 0030208  46.3254 314.0448 14.52258119652865"
      },
      "geometry": {
        "type": "Point",
        "coordinates": [
          -5.3788172217808015,
          10.015880299023202
        ]
      }
    },
    {
      "type": "Feature",
      "properties": {
        "norad_id": 35620,
        "name": "IRIDIUM 33 DEB",
        "group": "iridium-33-debris",
        "lat": 48.640203360911826,
        "lon": -137.97709463772577,
        "alt_km": 844.8719336651257,
        "timestamp": "2025-12-11T15:53:39.928836+00:00",
        "meta_object_name": "IRIDIUM 33 DEB",
        "meta_object_id": "1997-051QS",
        "meta_epoch": "2025-12-09T21:54:44.064864",
        "meta_mean_motion": 14.37894536,
        "meta_eccentricity": 0.01422721,
        "meta_inclination": 86.3878,
        "meta_ra_of_asc_node": 218.6459,
        "meta_arg_of_pericenter": 268.3253,
        "meta_mean_anomaly": 90.1645,
        "meta_ephemeris_type": 0,
        "meta_classification_type": "U",
        "meta_norad_cat_id": 35620,
        "meta_element_set_no": 999,
        "meta_rev_at_epoch": 59925,
        "meta_bstar": 0.0077821175,
        "meta_mean_motion_dot": 0.00026494,
        "meta_mean_motion_ddot": 0,
        "tle_line1": "1 35620U 97051QS  25343.91301001  .00026494  00000+0  77821-2 0  9991",
        "tle_line2": "2 35620  86.3878 218.6459 0142272 268.3253  90.1645 14.37894536599255"
      },
      "geometry": {
        "type": "Point",
        "coordinates": [
          -137.97709463772577,
          48.640203360911826
        ]
      }
    },
    {
      "type": "Feature",
      "properties": {
        "norad_id": 35622,
        "name": "IRIDIUM 33 DEB",
        "group": "iridium-33-debris",
        "lat": -55.4859635923414,
        "lon": 89.67709323366267,
        "alt_km": 560.9645328380839,
        "timestamp": "2025-12-11T15:53:39.928847+00:00",
        "meta_object_name": "IRIDIUM 33 DEB",
        "meta_object_id": "1997-051QU",
        "meta_epoch": "2025-12-11T05:58:54.175296",
        "meta_mean_motion": 15.04396192,
        "meta_eccentricity": 0.00064798,
        "meta_inclination": 86.2027,
        "meta_ra_of_asc_node": 264.3377,
        "meta_arg_of_pericenter": 337.0298,
        "meta_mean_anomaly": 183.1653,
        "meta_ephemeris_type": 0,
        "meta_classification_type": "U",
        "meta_norad_cat_id": 35622,
        "meta_element_set_no": 999,
        "meta_rev_at_epoch": 87337,
        "meta_bstar": 0.0092750777,
        "meta_mean_motion_dot": 0.00131767,
        "meta_mean_motion_ddot": 0,
        "tle_line1": "1 35622U 97051QU  25345.24923814  .00131767  00000+0  92751-2 0  9992",
        "tle_line2": "2 35622  86.2027 264.3377 0006479 337.0298 183.1653 15.04396192873370"
      },
      "geometry": {
        "type": "Point",
        "coordinates": [
          89.67709323366267,
          -55.4859635923414
        ]
      }
    },
    {
      "type": "Feature",
      "properties": {
        "norad_id": 35628,
        "name": "IRIDIUM 33 DEB",
        "group": "iridium-33-debris",
        "lat": -28.185400763465633,
        "lon": -168.48719461777378,
        "alt_km": 680.5745506096291,
        "timestamp": "2025-12-11T15:53:39.928857+00:00",
        "meta_object_name": "IRIDIUM 33 DEB",
        "meta_object_id": "1997-051RA",
        "meta_epoch": "2025-12-08T19:51:11.189376",
        "meta_mean_motion": 14.67493768,
        "meta_eccentricity": 0.00109309,
        "meta_inclination": 86.3576,
        "meta_ra_of_asc_node": 10.8203,
        "meta_arg_of_pericenter": 356.3974,
        "meta_mean_anomaly": 3.7159,
        "meta_ephemeris_type": 0,
        "meta_classification_type": "U",
        "meta_norad_cat_id": 35628,
        "meta_element_set_no": 999,
        "meta_rev_at_epoch": 86389,
        "meta_bstar": 0.0020097942,
        "meta_mean_motion_dot": 0.00011424,
        "meta_mean_motion_ddot": 0,
        "tle_line1": "1 35628U 97051RA  25342.82721284  .00011424  00000+0  20098-2 0  9998",
        "tle_line2": "2 35628  86.3576  10.8203 0010930 356.3974   3.7159 14.67493768863899"
      },
      "geometry": {
        "type": "Point",
        "coordinates": [
          -168.48719461777378,
          -28.185400763465633
        ]
      }
    },
    {
      "type": "Feature",
      "properties": {
        "norad_id": 35631,
        "name": "IRIDIUM 33 DEB",
        "group": "iridium-33-debris",
        "lat": -3.055210587799581,
        "lon": -158.36604350878585,
        "alt_km": 731.6010555487428,
        "timestamp": "2025-12-11T15:53:39.928870+00:00",
        "meta_object_name": "IRIDIUM 33 DEB",
        "meta_object_id": "1997-051RD",
        "meta_epoch": "2025-12-11T01:54:48.609792",
        "meta_mean_motion": 14.47303294,
        "meta_eccentricity": 0.00188533,
        "meta_inclination": 86.3671,
        "meta_ra_of_asc_node": 21.6904,
        "meta_arg_of_pericenter": 122.902,
        "meta_mean_anomaly": 266.5915,
        "meta_ephemeris_type": 0,
        "meta_classification_type": "U",
        "meta_norad_cat_id": 35631,
        "meta_element_set_no": 999,
        "meta_rev_at_epoch": 87173,
        "meta_bstar": 0.000512417,
        "meta_mean_motion_dot": 1.898e-05,
        "meta_mean_motion_ddot": 0,
        "tle_line1": "1 35631U 97051RD  25345.07972928  .00001898  00000+0  51242-3 0  9995",
        "tle_line2": "2 35631  86.3671  21.6904 0018853 122.9020 266.5915 14.47303294871731"
      },
      "geometry": {
        "type": "Point",
        "coordinates": [
          -158.36604350878585,
          -3.055210587799581
        ]
      }
    },
    {
      "type": "Feature",
      "properties": {
        "norad_id": 35680,
        "name": "IRIDIUM 33 DEB",
        "group": "iridium-33-debris",
        "lat": -74.65111674554515,
        "lon": -143.621378137118,
        "alt_km": 732.799520582932,
        "timestamp": "2025-12-11T15:53:39.928889+00:00",
        "meta_object_name": "IRIDIUM 33 DEB",
        "meta_object_id": "1997-051RJ",
        "meta_epoch": "2025-12-10T20:56:41.216928",
        "meta_mean_motion": 14.2086329,
        "meta_eccentricity": 0.015045,
        "meta_inclination": 86.1029,
        "meta_ra_of_asc_node": 22.3487,
        "meta_arg_of_pericenter": 284.4866,
        "meta_mean_anomaly": 255.1489,
        "meta_ephemeris_type": 0,
        "meta_classification_type": "U",
        "meta_norad_cat_id": 35680,
        "meta_element_set_no": 999,
        "meta_rev_at_epoch": 60674,
        "meta_bstar": 0.0056946,
        "meta_mean_motion_dot": 0.00013831,
        "meta_mean_motion_ddot": 0,
        "tle_line1": "1 35680U 97051RJ  25344.87269927  .00013831  00000+0  56946-2 0  9999",
        "tle_line2": "2 35680  86.1029  22.3487 0150450 284.4866 255.1489 14.20863290606741"
      },
      "geometry": {
        "type": "Point",
        "coordinates": [
          -143.621378137118,
          -74.65111674554515
        ]
      }
    }
  ]
}